<?xml version="1.0" encoding="UTF-8"?>
<gpx version="1.1" creator="BikeRoute" xmlns="http://www.topografix.com/GPX/1/1"><trk><name>הר חלוץ - צומת כרמיאל וחזרה (כביש 85)</name><trkseg>
<trkpt lat="32.95074" lon="35.312245"><ele>735</ele></trkpt>
<trkpt lat="32.950788" lon="35.312159"><ele>735</ele></trkpt>
<trkpt lat="32.950802" lon="35.312089"><ele>735</ele></trkpt>
<trkpt lat="32.950797" lon="35.312013"><ele>735</ele></trkpt>
<trkpt lat="32.950776" lon="35.311949"><ele>735</ele></trkpt>
<trkpt lat="32.950745" lon="35.311911"><ele>735</ele></trkpt>
<trkpt lat="32.950885" lon="35.311735"><ele>732</ele></trkpt>
<trkpt lat="32.950934" lon="35.311709"><ele>732</ele></trkpt>
<trkpt lat="32.950982" lon="35.311701"><ele>732</ele></trkpt>
<trkpt lat="32.951062" lon="35.311722"><ele>732</ele></trkpt>
<trkpt lat="32.951099" lon="35.311752"><ele>732</ele></trkpt>
<trkpt lat="32.951135" lon="35.311815"><ele>732</ele></trkpt>
<trkpt lat="32.951288" lon="35.312146"><ele>732</ele></trkpt>
<trkpt lat="32.951349" lon="35.312244"><ele>732</ele></trkpt>
<trkpt lat="32.951472" lon="35.312388"><ele>732</ele></trkpt>
<trkpt lat="32.951643" lon="35.312606"><ele>737</ele></trkpt>
<trkpt lat="32.951658" lon="35.312626"><ele>732</ele></trkpt>
<trkpt lat="32.951947" lon="35.313011"><ele>732</ele></trkpt>
<trkpt lat="32.95199" lon="35.31305"><ele>732</ele></trkpt>
<trkpt lat="32.952055" lon="35.313076"><ele>732</ele></trkpt>
<trkpt lat="32.952289" lon="35.313112"><ele>732</ele></trkpt>
<trkpt lat="32.952391" lon="35.313103"><ele>732</ele></trkpt>
<trkpt lat="32.952464" lon="35.313064"><ele>732</ele></trkpt>
<trkpt lat="32.952507" lon="35.313027"><ele>726</ele></trkpt>
<trkpt lat="32.952552" lon="35.31296"><ele>726</ele></trkpt>
<trkpt lat="32.952576" lon="35.312979"><ele>726</ele></trkpt>
<trkpt lat="32.952589" lon="35.31299"><ele>726</ele></trkpt>
<trkpt lat="32.952671" lon="35.313032"><ele>726</ele></trkpt>
<trkpt lat="32.952764" lon="35.313075"><ele>726</ele></trkpt>
<trkpt lat="32.95297" lon="35.313088"><ele>726</ele></trkpt>
<trkpt lat="32.953105" lon="35.313045"><ele>726</ele></trkpt>
<trkpt lat="32.953119" lon="35.312932"><ele>726</ele></trkpt>
<trkpt lat="32.95296" lon="35.311017"><ele>711</ele></trkpt>
<trkpt lat="32.952855" lon="35.31049"><ele>703</ele></trkpt>
<trkpt lat="32.952707" lon="35.310044"><ele>703</ele></trkpt>
<trkpt lat="32.952479" lon="35.309612"><ele>712</ele></trkpt>
<trkpt lat="32.952005" lon="35.309139"><ele>704</ele></trkpt>
<trkpt lat="32.950404" lon="35.308113"><ele>693</ele></trkpt>
<trkpt lat="32.94993" lon="35.307918"><ele>690</ele></trkpt>
<trkpt lat="32.949488" lon="35.307874"><ele>690</ele></trkpt>
<trkpt lat="32.947882" lon="35.308115"><ele>680</ele></trkpt>
<trkpt lat="32.947562" lon="35.308023"><ele>680</ele></trkpt>
<trkpt lat="32.94737" lon="35.307835"><ele>678</ele></trkpt>
<trkpt lat="32.947319" lon="35.307748"><ele>678</ele></trkpt>
<trkpt lat="32.947215" lon="35.307573"><ele>678</ele></trkpt>
<trkpt lat="32.947143" lon="35.307148"><ele>675</ele></trkpt>
<trkpt lat="32.947195" lon="35.306796"><ele>675</ele></trkpt>
<trkpt lat="32.948704" lon="35.304442"><ele>660</ele></trkpt>
<trkpt lat="32.949019" lon="35.303332"><ele>663</ele></trkpt>
<trkpt lat="32.948989" lon="35.302224"><ele>659</ele></trkpt>
<trkpt lat="32.949047" lon="35.301474"><ele>660</ele></trkpt>
<trkpt lat="32.949442" lon="35.300516"><ele>627</ele></trkpt>
<trkpt lat="32.949644" lon="35.299695"><ele>625</ele></trkpt>
<trkpt lat="32.949599" lon="35.299097"><ele>618</ele></trkpt>
<trkpt lat="32.948759" lon="35.295916"><ele>629</ele></trkpt>
<trkpt lat="32.948701" lon="35.295477"><ele>618</ele></trkpt>
<trkpt lat="32.948679" lon="35.295027"><ele>618</ele></trkpt>
<trkpt lat="32.948918" lon="35.293576"><ele>611</ele></trkpt>
<trkpt lat="32.948924" lon="35.291653"><ele>599</ele></trkpt>
<trkpt lat="32.94925" lon="35.288776"><ele>550</ele></trkpt>
<trkpt lat="32.949079" lon="35.287136"><ele>570</ele></trkpt>
<trkpt lat="32.949229" lon="35.285051"><ele>524</ele></trkpt>
<trkpt lat="32.949122" lon="35.284712"><ele>544</ele></trkpt>
<trkpt lat="32.948695" lon="35.283887"><ele>521</ele></trkpt>
<trkpt lat="32.947316" lon="35.282261"><ele>538</ele></trkpt>
<trkpt lat="32.946938" lon="35.2821"><ele>538</ele></trkpt>
<trkpt lat="32.946216" lon="35.282199"><ele>528</ele></trkpt>
<trkpt lat="32.945863" lon="35.282106"><ele>528</ele></trkpt>
<trkpt lat="32.94565" lon="35.281889"><ele>518</ele></trkpt>
<trkpt lat="32.945513" lon="35.281672"><ele>518</ele></trkpt>
<trkpt lat="32.945459" lon="35.281543"><ele>511</ele></trkpt>
<trkpt lat="32.945451" lon="35.28135"><ele>511</ele></trkpt>
<trkpt lat="32.945464" lon="35.281074"><ele>511</ele></trkpt>
<trkpt lat="32.945751" lon="35.279212"><ele>514</ele></trkpt>
<trkpt lat="32.945715" lon="35.278844"><ele>512</ele></trkpt>
<trkpt lat="32.945625" lon="35.278529"><ele>512</ele></trkpt>
<trkpt lat="32.945225" lon="35.278209"><ele>503</ele></trkpt>
<trkpt lat="32.944158" lon="35.278144"><ele>505</ele></trkpt>
<trkpt lat="32.943738" lon="35.277998"><ele>505</ele></trkpt>
<trkpt lat="32.943345" lon="35.277778"><ele>505</ele></trkpt>
<trkpt lat="32.941112" lon="35.275876"><ele>507</ele></trkpt>
<trkpt lat="32.940818" lon="35.275831"><ele>515</ele></trkpt>
<trkpt lat="32.940625" lon="35.275808"><ele>512</ele></trkpt>
<trkpt lat="32.940373" lon="35.275852"><ele>515</ele></trkpt>
<trkpt lat="32.941195" lon="35.278839"><ele>535</ele></trkpt>
<trkpt lat="32.941379" lon="35.280032"><ele>543</ele></trkpt>
<trkpt lat="32.94142" lon="35.281083"><ele>548</ele></trkpt>
<trkpt lat="32.94136" lon="35.281977"><ele>551</ele></trkpt>
<trkpt lat="32.941142" lon="35.282778"><ele>555</ele></trkpt>
<trkpt lat="32.940452" lon="35.284211"><ele>550</ele></trkpt>
<trkpt lat="32.939456" lon="35.286281"><ele>540</ele></trkpt>
<trkpt lat="32.938969" lon="35.28798"><ele>525</ele></trkpt>
<trkpt lat="32.938602" lon="35.292813"><ele>489</ele></trkpt>
<trkpt lat="32.93956" lon="35.295259"><ele>470</ele></trkpt>
<trkpt lat="32.939826" lon="35.296072"><ele>459</ele></trkpt>
<trkpt lat="32.939646" lon="35.299139"><ele>436</ele></trkpt>
<trkpt lat="32.939248" lon="35.301209"><ele>439</ele></trkpt>
<trkpt lat="32.939087" lon="35.303029"><ele>408</ele></trkpt>
<trkpt lat="32.939103" lon="35.303279"><ele>408</ele></trkpt>
<trkpt lat="32.939161" lon="35.304187"><ele>412</ele></trkpt>
<trkpt lat="32.939161" lon="35.304372"><ele>412</ele></trkpt>
<trkpt lat="32.93943" lon="35.305265"><ele>406</ele></trkpt>
<trkpt lat="32.93998" lon="35.307637"><ele>366</ele></trkpt>
<trkpt lat="32.940099" lon="35.310293"><ele>373</ele></trkpt>
<trkpt lat="32.939894" lon="35.311204"><ele>339</ele></trkpt>
<trkpt lat="32.939779" lon="35.311902"><ele>345</ele></trkpt>
<trkpt lat="32.939705" lon="35.312514"><ele>346</ele></trkpt>
<trkpt lat="32.939803" lon="35.313657"><ele>339</ele></trkpt>
<trkpt lat="32.939685" lon="35.313923"><ele>339</ele></trkpt>
<trkpt lat="32.939534" lon="35.314103"><ele>339</ele></trkpt>
<trkpt lat="32.939283" lon="35.314206"><ele>344</ele></trkpt>
<trkpt lat="32.939103" lon="35.314212"><ele>318</ele></trkpt>
<trkpt lat="32.938896" lon="35.314116"><ele>316</ele></trkpt>
<trkpt lat="32.938742" lon="35.313996"><ele>316</ele></trkpt>
<trkpt lat="32.938618" lon="35.313715"><ele>316</ele></trkpt>
<trkpt lat="32.938422" lon="35.312043"><ele>322</ele></trkpt>
<trkpt lat="32.93836" lon="35.311572"><ele>313</ele></trkpt>
<trkpt lat="32.937562" lon="35.309107"><ele>315</ele></trkpt>
<trkpt lat="32.937305" lon="35.308339"><ele>295</ele></trkpt>
<trkpt lat="32.936099" lon="35.304727"><ele>301</ele></trkpt>
<trkpt lat="32.935885" lon="35.30417"><ele>301</ele></trkpt>
<trkpt lat="32.935113" lon="35.302791"><ele>291</ele></trkpt>
<trkpt lat="32.934967" lon="35.302569"><ele>285</ele></trkpt>
<trkpt lat="32.934835" lon="35.302413"><ele>280</ele></trkpt>
<trkpt lat="32.934269" lon="35.30182"><ele>280</ele></trkpt>
<trkpt lat="32.933746" lon="35.301353"><ele>272</ele></trkpt>
<trkpt lat="32.933499" lon="35.30116"><ele>272</ele></trkpt>
<trkpt lat="32.933239" lon="35.301017"><ele>275</ele></trkpt>
<trkpt lat="32.932792" lon="35.300739"><ele>267</ele></trkpt>
<trkpt lat="32.932074" lon="35.300454"><ele>269</ele></trkpt>
<trkpt lat="32.931686" lon="35.300335"><ele>269</ele></trkpt>
<trkpt lat="32.929915" lon="35.300002"><ele>272</ele></trkpt>
<trkpt lat="32.929169" lon="35.299864"><ele>264</ele></trkpt>
<trkpt lat="32.92583" lon="35.299249"><ele>257</ele></trkpt>
<trkpt lat="32.925163" lon="35.299078"><ele>249</ele></trkpt>
<trkpt lat="32.92478" lon="35.299002"><ele>248</ele></trkpt>
<trkpt lat="32.924659" lon="35.299013"><ele>248</ele></trkpt>
<trkpt lat="32.924443" lon="35.299843"><ele>251</ele></trkpt>
<trkpt lat="32.924389" lon="35.300052"><ele>254</ele></trkpt>
<trkpt lat="32.924177" lon="35.300858"><ele>258</ele></trkpt>
<trkpt lat="32.924164" lon="35.300916"><ele>258</ele></trkpt>
<trkpt lat="32.924154" lon="35.300963"><ele>254</ele></trkpt>
<trkpt lat="32.924154" lon="35.300963"><ele>254</ele></trkpt>
<trkpt lat="32.924154" lon="35.300963"><ele>254</ele></trkpt>
<trkpt lat="32.924143" lon="35.301007"><ele>254</ele></trkpt>
<trkpt lat="32.924271" lon="35.300998"><ele>258</ele></trkpt>
<trkpt lat="32.924164" lon="35.300916"><ele>258</ele></trkpt>
<trkpt lat="32.923968" lon="35.300839"><ele>254</ele></trkpt>
<trkpt lat="32.923872" lon="35.300822"><ele>252</ele></trkpt>
<trkpt lat="32.923778" lon="35.300819"><ele>252</ele></trkpt>
<trkpt lat="32.923691" lon="35.300846"><ele>254</ele></trkpt>
<trkpt lat="32.9235" lon="35.300962"><ele>254</ele></trkpt>
<trkpt lat="32.923465" lon="35.301171"><ele>254</ele></trkpt>
<trkpt lat="32.923572" lon="35.301095"><ele>254</ele></trkpt>
<trkpt lat="32.923764" lon="35.300991"><ele>254</ele></trkpt>
<trkpt lat="32.923833" lon="35.300983"><ele>254</ele></trkpt>
<trkpt lat="32.923941" lon="35.300983"><ele>254</ele></trkpt>
<trkpt lat="32.924143" lon="35.301007"><ele>254</ele></trkpt>
<trkpt lat="32.924271" lon="35.300998"><ele>258</ele></trkpt>
<trkpt lat="32.924307" lon="35.300854"><ele>258</ele></trkpt>
<trkpt lat="32.924496" lon="35.300092"><ele>254</ele></trkpt>
<trkpt lat="32.92464" lon="35.299539"><ele>251</ele></trkpt>
<trkpt lat="32.924726" lon="35.299353"><ele>251</ele></trkpt>
<trkpt lat="32.924771" lon="35.299282"><ele>251</ele></trkpt>
<trkpt lat="32.92481" lon="35.299238"><ele>251</ele></trkpt>
<trkpt lat="32.924876" lon="35.299195"><ele>251</ele></trkpt>
<trkpt lat="32.924944" lon="35.299166"><ele>251</ele></trkpt>
<trkpt lat="32.925098" lon="35.299149"><ele>249</ele></trkpt>
<trkpt lat="32.92583" lon="35.299249"><ele>257</ele></trkpt>
<trkpt lat="32.929169" lon="35.299864"><ele>264</ele></trkpt>
<trkpt lat="32.929915" lon="35.300002"><ele>272</ele></trkpt>
<trkpt lat="32.931686" lon="35.300335"><ele>269</ele></trkpt>
<trkpt lat="32.932074" lon="35.300454"><ele>269</ele></trkpt>
<trkpt lat="32.932792" lon="35.300739"><ele>267</ele></trkpt>
<trkpt lat="32.933239" lon="35.301017"><ele>275</ele></trkpt>
<trkpt lat="32.933499" lon="35.30116"><ele>272</ele></trkpt>
<trkpt lat="32.933746" lon="35.301353"><ele>272</ele></trkpt>
<trkpt lat="32.934269" lon="35.30182"><ele>280</ele></trkpt>
<trkpt lat="32.934835" lon="35.302413"><ele>280</ele></trkpt>
<trkpt lat="32.934967" lon="35.302569"><ele>285</ele></trkpt>
<trkpt lat="32.935113" lon="35.302791"><ele>291</ele></trkpt>
<trkpt lat="32.935885" lon="35.30417"><ele>301</ele></trkpt>
<trkpt lat="32.936099" lon="35.304727"><ele>301</ele></trkpt>
<trkpt lat="32.937305" lon="35.308339"><ele>295</ele></trkpt>
<trkpt lat="32.937562" lon="35.309107"><ele>315</ele></trkpt>
<trkpt lat="32.93836" lon="35.311572"><ele>313</ele></trkpt>
<trkpt lat="32.938422" lon="35.312043"><ele>322</ele></trkpt>
<trkpt lat="32.938618" lon="35.313715"><ele>316</ele></trkpt>
<trkpt lat="32.938742" lon="35.313996"><ele>316</ele></trkpt>
<trkpt lat="32.938896" lon="35.314116"><ele>316</ele></trkpt>
<trkpt lat="32.939103" lon="35.314212"><ele>318</ele></trkpt>
<trkpt lat="32.939283" lon="35.314206"><ele>344</ele></trkpt>
<trkpt lat="32.939534" lon="35.314103"><ele>339</ele></trkpt>
<trkpt lat="32.939685" lon="35.313923"><ele>339</ele></trkpt>
<trkpt lat="32.939803" lon="35.313657"><ele>339</ele></trkpt>
<trkpt lat="32.939705" lon="35.312514"><ele>346</ele></trkpt>
<trkpt lat="32.939779" lon="35.311902"><ele>345</ele></trkpt>
<trkpt lat="32.939894" lon="35.311204"><ele>339</ele></trkpt>
<trkpt lat="32.940099" lon="35.310293"><ele>373</ele></trkpt>
<trkpt lat="32.93998" lon="35.307637"><ele>366</ele></trkpt>
<trkpt lat="32.93943" lon="35.305265"><ele>406</ele></trkpt>
<trkpt lat="32.939161" lon="35.304372"><ele>412</ele></trkpt>
<trkpt lat="32.939161" lon="35.304187"><ele>412</ele></trkpt>
<trkpt lat="32.939103" lon="35.303279"><ele>408</ele></trkpt>
<trkpt lat="32.939087" lon="35.303029"><ele>408</ele></trkpt>
<trkpt lat="32.939248" lon="35.301209"><ele>439</ele></trkpt>
<trkpt lat="32.939646" lon="35.299139"><ele>436</ele></trkpt>
<trkpt lat="32.939826" lon="35.296072"><ele>459</ele></trkpt>
<trkpt lat="32.93956" lon="35.295259"><ele>470</ele></trkpt>
<trkpt lat="32.938602" lon="35.292813"><ele>489</ele></trkpt>
<trkpt lat="32.938969" lon="35.28798"><ele>525</ele></trkpt>
<trkpt lat="32.939456" lon="35.286281"><ele>540</ele></trkpt>
<trkpt lat="32.940452" lon="35.284211"><ele>550</ele></trkpt>
<trkpt lat="32.941142" lon="35.282778"><ele>555</ele></trkpt>
<trkpt lat="32.94136" lon="35.281977"><ele>551</ele></trkpt>
<trkpt lat="32.94142" lon="35.281083"><ele>548</ele></trkpt>
<trkpt lat="32.941379" lon="35.280032"><ele>543</ele></trkpt>
<trkpt lat="32.941195" lon="35.278839"><ele>535</ele></trkpt>
<trkpt lat="32.940373" lon="35.275852"><ele>515</ele></trkpt>
<trkpt lat="32.940625" lon="35.275808"><ele>512</ele></trkpt>
<trkpt lat="32.940818" lon="35.275831"><ele>515</ele></trkpt>
<trkpt lat="32.941112" lon="35.275876"><ele>507</ele></trkpt>
<trkpt lat="32.943345" lon="35.277778"><ele>505</ele></trkpt>
<trkpt lat="32.943738" lon="35.277998"><ele>505</ele></trkpt>
<trkpt lat="32.944158" lon="35.278144"><ele>505</ele></trkpt>
<trkpt lat="32.945225" lon="35.278209"><ele>503</ele></trkpt>
<trkpt lat="32.945625" lon="35.278529"><ele>512</ele></trkpt>
<trkpt lat="32.945715" lon="35.278844"><ele>512</ele></trkpt>
<trkpt lat="32.945751" lon="35.279212"><ele>514</ele></trkpt>
<trkpt lat="32.945464" lon="35.281074"><ele>511</ele></trkpt>
<trkpt lat="32.945451" lon="35.28135"><ele>511</ele></trkpt>
<trkpt lat="32.945459" lon="35.281543"><ele>511</ele></trkpt>
<trkpt lat="32.945513" lon="35.281672"><ele>518</ele></trkpt>
<trkpt lat="32.94565" lon="35.281889"><ele>518</ele></trkpt>
<trkpt lat="32.945863" lon="35.282106"><ele>528</ele></trkpt>
<trkpt lat="32.946216" lon="35.282199"><ele>528</ele></trkpt>
<trkpt lat="32.946938" lon="35.2821"><ele>538</ele></trkpt>
<trkpt lat="32.947316" lon="35.282261"><ele>538</ele></trkpt>
<trkpt lat="32.948695" lon="35.283887"><ele>521</ele></trkpt>
<trkpt lat="32.949122" lon="35.284712"><ele>544</ele></trkpt>
<trkpt lat="32.949229" lon="35.285051"><ele>524</ele></trkpt>
<trkpt lat="32.949079" lon="35.287136"><ele>570</ele></trkpt>
<trkpt lat="32.94925" lon="35.288776"><ele>550</ele></trkpt>
<trkpt lat="32.948924" lon="35.291653"><ele>599</ele></trkpt>
<trkpt lat="32.948918" lon="35.293576"><ele>611</ele></trkpt>
<trkpt lat="32.948679" lon="35.295027"><ele>618</ele></trkpt>
<trkpt lat="32.948701" lon="35.295477"><ele>618</ele></trkpt>
<trkpt lat="32.948759" lon="35.295916"><ele>629</ele></trkpt>
<trkpt lat="32.949599" lon="35.299097"><ele>618</ele></trkpt>
<trkpt lat="32.949644" lon="35.299695"><ele>625</ele></trkpt>
<trkpt lat="32.949442" lon="35.300516"><ele>627</ele></trkpt>
<trkpt lat="32.949047" lon="35.301474"><ele>660</ele></trkpt>
<trkpt lat="32.948989" lon="35.302224"><ele>659</ele></trkpt>
<trkpt lat="32.949019" lon="35.303332"><ele>663</ele></trkpt>
<trkpt lat="32.948704" lon="35.304442"><ele>660</ele></trkpt>
<trkpt lat="32.947195" lon="35.306796"><ele>675</ele></trkpt>
<trkpt lat="32.947143" lon="35.307148"><ele>675</ele></trkpt>
<trkpt lat="32.947215" lon="35.307573"><ele>678</ele></trkpt>
<trkpt lat="32.947319" lon="35.307748"><ele>678</ele></trkpt>
<trkpt lat="32.94737" lon="35.307835"><ele>678</ele></trkpt>
<trkpt lat="32.947562" lon="35.308023"><ele>680</ele></trkpt>
<trkpt lat="32.947882" lon="35.308115"><ele>680</ele></trkpt>
<trkpt lat="32.949488" lon="35.307874"><ele>690</ele></trkpt>
<trkpt lat="32.94993" lon="35.307918"><ele>690</ele></trkpt>
<trkpt lat="32.950404" lon="35.308113"><ele>693</ele></trkpt>
<trkpt lat="32.952005" lon="35.309139"><ele>704</ele></trkpt>
<trkpt lat="32.952479" lon="35.309612"><ele>712</ele></trkpt>
<trkpt lat="32.952707" lon="35.310044"><ele>703</ele></trkpt>
<trkpt lat="32.952855" lon="35.31049"><ele>703</ele></trkpt>
<trkpt lat="32.95296" lon="35.311017"><ele>711</ele></trkpt>
<trkpt lat="32.953119" lon="35.312932"><ele>726</ele></trkpt>
<trkpt lat="32.953105" lon="35.313045"><ele>726</ele></trkpt>
<trkpt lat="32.95297" lon="35.313088"><ele>726</ele></trkpt>
<trkpt lat="32.952764" lon="35.313075"><ele>726</ele></trkpt>
<trkpt lat="32.952671" lon="35.313032"><ele>726</ele></trkpt>
<trkpt lat="32.952589" lon="35.31299"><ele>726</ele></trkpt>
<trkpt lat="32.952576" lon="35.312979"><ele>726</ele></trkpt>
<trkpt lat="32.952552" lon="35.31296"><ele>726</ele></trkpt>
<trkpt lat="32.952507" lon="35.313027"><ele>726</ele></trkpt>
<trkpt lat="32.952464" lon="35.313064"><ele>732</ele></trkpt>
<trkpt lat="32.952391" lon="35.313103"><ele>732</ele></trkpt>
<trkpt lat="32.952289" lon="35.313112"><ele>732</ele></trkpt>
<trkpt lat="32.952055" lon="35.313076"><ele>732</ele></trkpt>
<trkpt lat="32.95199" lon="35.31305"><ele>732</ele></trkpt>
<trkpt lat="32.951947" lon="35.313011"><ele>732</ele></trkpt>
<trkpt lat="32.951658" lon="35.312626"><ele>732</ele></trkpt>
<trkpt lat="32.951643" lon="35.312606"><ele>737</ele></trkpt>
<trkpt lat="32.951472" lon="35.312388"><ele>732</ele></trkpt>
<trkpt lat="32.951349" lon="35.312244"><ele>732</ele></trkpt>
<trkpt lat="32.951288" lon="35.312146"><ele>732</ele></trkpt>
<trkpt lat="32.951135" lon="35.311815"><ele>732</ele></trkpt>
<trkpt lat="32.951099" lon="35.311752"><ele>732</ele></trkpt>
<trkpt lat="32.951062" lon="35.311722"><ele>732</ele></trkpt>
<trkpt lat="32.950982" lon="35.311701"><ele>732</ele></trkpt>
<trkpt lat="32.950934" lon="35.311709"><ele>732</ele></trkpt>
<trkpt lat="32.950885" lon="35.311735"><ele>732</ele></trkpt>
<trkpt lat="32.950745" lon="35.311911"><ele>735</ele></trkpt>
<trkpt lat="32.950776" lon="35.311949"><ele>735</ele></trkpt>
<trkpt lat="32.950797" lon="35.312013"><ele>735</ele></trkpt>
<trkpt lat="32.950802" lon="35.312089"><ele>735</ele></trkpt>
<trkpt lat="32.950788" lon="35.312159"><ele>735</ele></trkpt>
<trkpt lat="32.95074" lon="35.312245"><ele>735</ele></trkpt>
<trkpt lat="32.95074" lon="35.312245"><ele>735</ele></trkpt>
</trkseg></trk></gpx>
